{"version": 0.6, "generator": "Overpass API 0.7.62.8 e802775f", "osm3s": {"timestamp_osm_base": "2025-11-24T14:28:36Z", "copyright": "The data included in this document is from www.openstreetmap.org. The data is made available under ODbL."}, "elements": [{"type": "node", "id": 1394714960, "lat": 35.6442248, "lon": 139.6699064, "tags": {"amenity": "cafe", "name": "\u30ab\u30d5\u30a7\u30b3\u30ed\u30e9\u30c9", "name:en": "Cafe Colorado", "name:ja": "\u30ab\u30d5\u30a7\u30b3\u30ed\u30e9\u30c9", "wheelchair": "no"}}, {"type": "node", "id": 1868055055, "lat": 35.6444851, "lon": 139.6697243, "tags": {"addr:block_number": "20", "addr:city": "\u4e16\u7530\u8c37\u533a", "addr:floor": "1F", "addr:housename": "\u6d77\u6d25\u30d3\u30eb", "addr:housenumber": "25", "addr:neighbourhood": "\u592a\u5b50\u5802\u56db\u4e01\u76ee", "addr:postcode": "154-0004", "addr:province": "\u6771\u4eac\u90fd", "amenity": "cafe", "branch": "\u4e09\u8ed2\u8336\u5c4b\u5e97", "brand": "\u30b9\u30bf\u30fc\u30d0\u30c3\u30af\u30b9", "brand:en": "Starbucks", "brand:ja": "\u30b9\u30bf\u30fc\u30d0\u30c3\u30af\u30b9", "brand:wikidata": "Q37158", "brand:wikipedia": "ja:\u30b9\u30bf\u30fc\u30d0\u30c3\u30af\u30b9", "cuisine": "coffee_shop", "drive_through": "no", "internet_access": "wlan", "level": "0", "name": "\u30b9\u30bf\u30fc\u30d0\u30c3\u30af\u30b9", "name:en": "Starbucks", "name:ja": "\u30b9\u30bf\u30fc\u30d0\u30c3\u30af\u30b9", "name:ja-Hira": "\u3059\u305f\u30fc\u3070\u3063\u304f\u3059", "name:ja-Latn": "Sut\u0101bakkusu", "official_name": "\u30b9\u30bf\u30fc\u30d0\u30c3\u30af\u30b9\u30b3\u30fc\u30d2\u30fc", "official_name:en": "Starbucks Coffee", "official_name:ja": "\u30b9\u30bf\u30fc\u30d0\u30c3\u30af\u30b9\u30b3\u30fc\u30d2\u30fc", "opening_hours": "Mo-Fr 07:00-22:30; Sa-Su,PH 08:00-22:30", "operator": "\u30b9\u30bf\u30fc\u30d0\u30c3\u30af\u30b9\u30b3\u30fc\u30d2\u30fc\u30b8\u30e3\u30d1\u30f3", "phone": "+81 3-5430-5088", "source": "Bing 2010, (URL) 2015", "takeaway": "yes", "website": "https://www.starbucks.co.jp/", "wheelchair": "limited"}}, {"type": "node", "id": 1872439952, "lat": 35.6432918, "lon": 139.6700437, "tags": {"addr:block_number": "14", "addr:city": "\u4e16\u7530\u8c37\u533a", "addr:housenumber": "13", "addr:neighbourhood": "\u4e09\u8ed2\u8336\u5c4b\u4e8c\u4e01\u76ee", "addr:province": "\u6771\u4eac\u90fd", "amenity": "cafe", "branch": "\u4e09\u8ed2\u8336\u5c4b2\u4e01\u76ee\u5e97", "brand": "\u30c9\u30c8\u30fc\u30eb", "brand:en": "DOUTOR", "brand:ja": "\u30c9\u30c8\u30fc\u30eb", "brand:wikidata": "Q11322732", "brand:wikipedia": "ja:\u30c9\u30c8\u30fc\u30eb\u30b3\u30fc\u30d2\u30fc\u30b7\u30e7\u30c3\u30d7", "cuisine": "coffee_shop", "internet_access": "no", "name": "\u30c9\u30c8\u30fc\u30eb\u30b3\u30fc\u30d2\u30fc\u30b7\u30e7\u30c3\u30d7", "name:en": "Doutor Coffee Shop", "name:ja": "\u30c9\u30c8\u30fc\u30eb\u30b3\u30fc\u30d2\u30fc\u30b7\u30e7\u30c3\u30d7", "name:ja_rm": "Dotoru Kohi Shoppu", "opening_hours": "Mo-Fr 07:30-20:00; Sa-Su,PH 09:00-20:00", "operator": "\u30c9\u30c8\u30fc\u30eb\u30b3\u30fc\u30d2\u30fc", "operator:wikidata": "Q11322732", "operator:wikipedia": "ja:\u30c9\u30c8\u30fc\u30eb\u30b3\u30fc\u30d2\u30fc\u30b7\u30e7\u30c3\u30d7", "phone": "+81 3-3795-4194", "short_name": "DCS", "smoking": "separated", "source": "Bing 2010; (URL) 2015", "takeaway": "yes", "website": "http://www.doutor.co.jp/dcs/"}}, {"type": "node", "id": 1895840346, "lat": 35.64303, "lon": 139.6711787, "tags": {"addr:postcode": "154-0024", "amenity": "cafe", "atm": "no", "branch": "\u4e09\u8ed2\u8336\u5c4b\u5e97", "brand": "\u4e0a\u5cf6\u73c8\u7432\u5e97", "brand:en": "Ueshima Coffee House", "brand:ja": "\u4e0a\u5cf6\u73c8\u7432\u5e97", "brand:wikidata": "Q96152143", "check_date": "2024-02-19", "cuisine": "coffee_shop", "drive_through": "no", "internet_access": "no", "name": "\u4e0a\u5cf6\u73c8\u7432\u5e97", "name:en": "Ueshima Coffee House", "name:ja": "\u4e0a\u5cf6\u73c8\u7432\u5e97", "name:ja_rm": "Ueshima Kohi Ten", "opening_hours": "Mo-Sa 07:30-22:00; Su,PH 08:00-21:00", "operator": "\u30e6\u30fc\u30b7\u30fc\u30b7\u30fc\u30d5\u30fc\u30c9\u30b5\u30fc\u30d3\u30b9\u30b7\u30b9\u30c6\u30e0\u30ba", "outdoor_seating": "yes", "smoking": "outside", "source": "(URL)", "takeaway": "yes", "website": "https://www.ueshima-coffee-ten.jp/", "wheelchair": "yes"}}, {"type": "node", "id": 2015924523, "lat": 35.6433891, "lon": 139.6714423, "tags": {"addr:block_number": "38", "addr:city": "\u4e16\u7530\u8c37\u533a", "addr:housenumber": "8", "addr:neighbourhood": "\u4e09\u8ed2\u8336\u5c4b\u4e00\u4e01\u76ee", "addr:postcode": "154-0024", "addr:province": "\u6771\u4eac\u90fd", "amenity": "cafe", "branch": "\u4e09\u8ed2\u8336\u5c4b\u5e97", "brand": "\u30b3\u30e1\u30c0\u73c8\u7432\u5e97", "brand:en": "KOMEDA'S Coffee", "brand:ja": "\u30b3\u30e1\u30c0\u73c8\u7432\u5e97", "brand:wikidata": "Q11302679", "brand:wikipedia": "ja:\u30b3\u30e1\u30c0", "cuisine": "coffee_shop", "description": "On the second floor of the building", "indoor_seating": "yes", "level": "2", "name": "\u30b3\u30e1\u30c0\u73c8\u7432\u5e97", "name:en": "Komeda's Coffee", "name:ja": "\u30b3\u30e1\u30c0\u73c8\u7432\u5e97", "name:ja_rm": "Komeda Kohi-ten", "operator": "\u30b3\u30e1\u30c0", "outdoor_seating": "no", "phone": "+81-3-64508923", "source": "(URL)", "takeaway": "yes", "website": "https://www.komeda.co.jp/"}}, {"type": "node", "id": 2068250645, "lat": 35.6482364, "lon": 139.6686841}, {"type": "node", "id": 2068250647, "lat": 35.6482529, "lon": 139.6687527}, {"type": "node", "id": 2068250649, "lat": 35.6483272, "lon": 139.6687477}, {"type": "node", "id": 2068250650, "lat": 35.64833, "lon": 139.6686245}, {"type": "node", "id": 2128916866, "lat": 35.64286, "lon": 139.6669233}, {"type": "node", "id": 2128916868, "lat": 35.6428605, "lon": 139.6668551}, {"type": "node", "id": 2128916912, "lat": 35.6429506, "lon": 139.6669244}, {"type": "node", "id": 2128916915, "lat": 35.6429512, "lon": 139.6668562}, {"type": "node", "id": 2484582776, "lat": 35.6444306, "lon": 139.6692001, "tags": {"addr:block_number": "20", "addr:city": "\u4e16\u7530\u8c37\u533a", "addr:housenumber": "4", "addr:neighbourhood": "\u592a\u5b50\u5802\u56db\u4e01\u76ee", "addr:postcode": "154-0004", "addr:province": "\u6771\u4eac\u90fd", "amenity": "cafe", "cuisine": "coffee_shop", "name": "Mamehico", "outdoor_seating": "yes", "wheelchair": "limited"}}, {"type": "node", "id": 3162646447, "lat": 35.6424559, "lon": 139.6705134, "tags": {"addr:city": "\u4e16\u7530\u8c37\u533a", "addr:neighbourhood": "1\u4e01\u76ee", "addr:postcode": "154-0024", "addr:province": "\u6771\u4eac\u90fd", "addr:quarter": "\u4e09\u8ed2\u8336\u5c4b", "amenity": "cafe", "cuisine": "coffee_shop", "indoor_seating": "yes", "internet_access": "no", "name": "Seven Keys Coffee", "name:ja": "\u55ab\u8336\u5e97\u30bb\u30d6\u30f3", "name:ja-Hira": "\u304d\u3063\u3055\u3066\u3093\u305b\u3076\u3093", "opening_hours": "Mo-Su 11:00-21:00", "outdoor_seating": "no", "payment:cash": "yes", "payment:paypay": "yes", "smoking": "isolated", "source": "bing 2014,survey"}}, {"type": "node", "id": 3174657848, "lat": 35.6442656, "lon": 139.6732029}, {"type": "node", "id": 3174657849, "lat": 35.6441708, "lon": 139.6730392}, {"type": "node", "id": 3174657850, "lat": 35.6440356, "lon": 139.673117}, {"type": "node", "id": 3174657851, "lat": 35.6439909, "lon": 139.6731854}, {"type": "node", "id": 3174657852, "lat": 35.6441054, "lon": 139.6733946}, {"type": "node", "id": 3174657853, "lat": 35.644149, "lon": 139.6733531}, {"type": "node", "id": 3174657854, "lat": 35.6441435, "lon": 139.673341}, {"type": "node", "id": 3174657855, "lat": 35.6442296, "lon": 139.6732619}, {"type": "node", "id": 3189712652, "lat": 35.6425789, "lon": 139.6711996}, {"type": "node", "id": 3189712653, "lat": 35.6424204, "lon": 139.6711373}, {"type": "node", "id": 3189712654, "lat": 35.64241, "lon": 139.6711879}, {"type": "node", "id": 3189712655, "lat": 35.6425721, "lon": 139.6712476}, {"type": "node", "id": 3504207330, "lat": 35.6402787, "lon": 139.6748789}, {"type": "node", "id": 3504207335, "lat": 35.6401305, "lon": 139.6748816}, {"type": "node", "id": 3641051128, "lat": 35.6439067, "lon": 139.6697475, "tags": {"addr:block_number": "1", "addr:city": "\u4e16\u7530\u8c37\u533a", "addr:housenumber": "1", "addr:neighbourhood": "\u592a\u5b50\u5802\u56db\u4e01\u76ee", "addr:province": "\u6771\u4eac\u90fd", "amenity": "cafe", "branch": "\u4e09\u8ed2\u8336\u5c4b\u30ad\u30e3\u30ed\u30c3\u30c8\u30bf\u30ef\u30fc\u5e97", "brand": "\u30c9\u30c8\u30fc\u30eb", "brand:en": "DOUTOR", "brand:ja": "\u30c9\u30c8\u30fc\u30eb", "brand:wikidata": "Q11322732", "brand:wikipedia": "ja:\u30c9\u30c8\u30fc\u30eb\u30b3\u30fc\u30d2\u30fc\u30b7\u30e7\u30c3\u30d7", "cuisine": "coffee_shop", "internet_access": "wlan", "name": "\u30c9\u30c8\u30fc\u30eb\u30b3\u30fc\u30d2\u30fc\u30b7\u30e7\u30c3\u30d7", "name:en": "Doutor Coffee Shop", "name:ja": "\u30c9\u30c8\u30fc\u30eb\u30b3\u30fc\u30d2\u30fc\u30b7\u30e7\u30c3\u30d7", "name:ja-Hira": "\u3069\u3068\u30fc\u308b\u3053\u30fc\u3072\u30fc\u3057\u3087\u3063\u3077", "name:ja-Latn": "Dot\u014dru K\u014dh\u012b Shoppu", "name:ja_rm": "Dot\u014dru K\u014dh\u012b Shoppu", "opening_hours": "Mo-Fr 06:50-21:30; Sa 07:30-21:30; PH,Su 08:00-21:30", "operator": "\u30c9\u30c8\u30fc\u30eb\u30b3\u30fc\u30d2\u30fc", "operator:wikidata": "Q11322732", "operator:wikipedia": "ja:\u30c9\u30c8\u30fc\u30eb\u30b3\u30fc\u30d2\u30fc\u30b7\u30e7\u30c3\u30d7", "phone": "+81 3-5430-4900", "short_name": "DCS", "smoking": "separated", "source": "(URL) 2015", "takeaway": "yes", "website": "https://www.doutor.co.jp/dcs/", "wheelchair": "no"}}, {"type": "node", "id": 5395272815, "lat": 35.6488418, "lon": 139.668127, "tags": {"amenity": "cafe", "name": "PORTLAND CAFE and MARKET"}}, {"type": "node", "id": 5395586480, "lat": 35.6442051, "lon": 139.6709914, "tags": {"amenity": "cafe", "name": "CHAT NOIR"}}, {"type": "node", "id": 5397202291, "lat": 35.6428972, "lon": 139.6727916, "tags": {"amenity": "cafe", "name": "*LUPOPO*"}}, {"type": "node", "id": 5397202298, "lat": 35.6437442, "lon": 139.6727584, "tags": {"amenity": "cafe", "name": "blus cafe"}}, {"type": "node", "id": 5441340485, "lat": 35.643389, "lon": 139.6630809, "tags": {"amenity": "cafe", "name": "Courier"}}, {"type": "node", "id": 5441340517, "lat": 35.6434378, "lon": 139.6647142, "tags": {"amenity": "cafe", "name": "OBSCURA"}}, {"type": "node", "id": 5441366270, "lat": 35.6437805, "lon": 139.6706743, "tags": {"alt_name:en": "Saint Marc Caf\u00e9", "amenity": "cafe", "brand": "\u30b5\u30f3\u30de\u30eb\u30af\u30ab\u30d5\u30a7", "brand:en": "ST.MARC CAF\u00c9", "brand:ja": "\u30b5\u30f3\u30de\u30eb\u30af\u30ab\u30d5\u30a7", "brand:wikidata": "Q11305988", "brand:wikipedia": "ja:\u30b5\u30f3\u30de\u30eb\u30af\u30db\u30fc\u30eb\u30c7\u30a3\u30f3\u30b0\u30b9", "cuisine": "coffee_shop", "indoor_seating": "yes", "level": "1", "name": "\u30b5\u30f3\u30de\u30eb\u30af\u30ab\u30d5\u30a7", "name:en": "Saint Marc Cafe", "name:ja": "\u30b5\u30f3\u30de\u30eb\u30af\u30ab\u30d5\u30a7", "outdoor_seating": "no", "takeaway": "yes"}}, {"type": "node", "id": 5441367327, "lat": 35.6458073, "lon": 139.6749312, "tags": {"amenity": "cafe", "name": "SHIROKUMA", "website": "http://shirokumatokyo.com/"}}, {"type": "node", "id": 5441431410, "lat": 35.6440803, "lon": 139.6699313, "tags": {"amenity": "cafe", "name": "\u4f3d\u7f85"}}, {"type": "node", "id": 5753699577, "lat": 35.6420604, "lon": 139.6715639, "tags": {"addr:block_number": "33", "addr:city": "\u4e16\u7530\u8c37\u533a", "addr:housenumber": "18", "addr:neighbourhood": "\u4e09\u8ed2\u8336\u5c4b\u4e00\u4e01\u76ee", "addr:postcode": "154-0024", "addr:province": "\u6771\u4eac\u90fd", "amenity": "cafe", "branch": "\u4e09\u8ed2\u8336\u5c4b\u30ab\u30d5\u30a7", "brand": "Blue Bottle Coffee", "brand:en": "Blue Bottle Coffee", "brand:ja": "\u30d6\u30eb\u30fc\u30dc\u30c8\u30eb\u30b3\u30fc\u30d2\u30fc", "brand:wikidata": "Q4928917", "brand:wikipedia": "en:Blue Bottle Coffee", "cuisine": "coffee_shop", "internet_access": "wlan", "name": "Blue Bottle Coffee", "name:en": "Blue Bottle Coffee", "name:ja": "\u30d6\u30eb\u30fc\u30dc\u30c8\u30eb\u30b3\u30fc\u30d2\u30fc", "name:ko": "\ube14\ub8e8\ubc84\ud2c0 \ucee4\ud53c", "name:zh": "\u85cd\u74f6\u5496\u5561", "opening_hours": "Mo-Su 08:00-19:00", "operator": "\u30d6\u30eb\u30fc\u30dc\u30c8\u30eb\u30b3\u30fc\u30d2\u30fc\u30b8\u30e3\u30d1\u30f3\u5408\u540c\u4f1a\u793e", "phone": "+81 3 6453-2468", "source": "survey", "takeaway": "yes", "website": "https://bluebottlecoffee.jp/"}}, {"type": "node", "id": 10114577104, "lat": 35.6402112, "lon": 139.6749138, "tags": {"amenity": "cafe", "name": "Coffee and Toast", "opening_hours": "Mo-Su 09:00-15:00; PH off", "outdoor_seating": "no", "phone": "+81-50-5532-9684", "website": "https://www.coffeetoast.jp"}}, {"type": "node", "id": 11011307495, "lat": 35.640262, "lon": 139.6744648, "tags": {"addr:block_number": "5", "addr:city": "\u4e16\u7530\u8c37\u533a", "addr:housenumber": "9", "addr:neighbourhood": "\u4e09\u8ed2\u8336\u5c4b\u4e00\u4e01\u76ee", "addr:province": "\u6771\u4eac\u90fd", "amenity": "cafe", "cuisine": "taiwanese;tea", "description": "\u53f0\u6e7e\u8336\u85dd\u9928 \u685c\u6a3a\u82d1\uff08\u30a4\u30f3\u30d5\u30a1\u30a8\u30f3\uff09", "name": "\u685c\u6a3a\u82d1"}}, {"type": "node", "id": 11021202307, "lat": 35.6404826, "lon": 139.6749022, "tags": {"amenity": "cafe", "cuisine": "coffee", "name": "cafecafe"}}, {"type": "node", "id": 11299164154, "lat": 35.6417835, "lon": 139.6728367, "tags": {"amenity": "cafe", "name": "Smiling Beathoven"}}, {"type": "node", "id": 11448155573, "lat": 35.6448496, "lon": 139.6697052, "tags": {"amenity": "cafe", "check_date": "2023-12-24", "name": "LONG WEEKEND", "wheelchair": "limited"}}, {"type": "node", "id": 11505128435, "lat": 35.6433355, "lon": 139.6698954, "tags": {"amenity": "cafe", "brand": "\u30c9\u30c8\u30fc\u30eb", "brand:en": "DOUTOR", "brand:ja": "\u30c9\u30c8\u30fc\u30eb", "brand:wikidata": "Q11322732", "cuisine": "coffee_shop", "name": "\u30c9\u30c8\u30fc\u30eb\u30b3\u30fc\u30d2\u30fc\u30b7\u30e7\u30c3\u30d7", "name:en": "Doutor Coffee Shop", "name:ja": "\u30c9\u30c8\u30fc\u30eb\u30b3\u30fc\u30d2\u30fc\u30b7\u30e7\u30c3\u30d7", "short_name": "DCS", "takeaway": "yes"}}, {"type": "node", "id": 11715827972, "lat": 35.6410498, "lon": 139.6740113, "tags": {"addr:block_number": "36", "addr:city": "\u4e16\u7530\u8c37\u533a", "addr:housenumber": "1", "addr:neighbourhood": "2", "addr:postcode": "154-0002", "addr:province": "\u6771\u4eac\u90fd", "addr:quarter": "\u4e0b\u99ac", "amenity": "cafe", "cuisine": "coffee_shop", "name": "Swallow", "outdoor_seating": "no", "payment:cash": "yes", "payment:contactless": "yes", "payment:debit_cards": "yes"}}, {"type": "node", "id": 11941546169, "lat": 35.6421051, "lon": 139.6728533, "tags": {"amenity": "cafe", "name:en": "3rd cafe", "opening_hours": "Mo-Sa 13:00-17:30"}}, {"type": "node", "id": 12009374198, "lat": 35.6420641, "lon": 139.6715945, "tags": {"amenity": "cafe", "cuisine": "coffee_shop", "name": "Blue Bottle Cafe"}}, {"type": "node", "id": 12011851247, "lat": 35.6401759, "lon": 139.6749565}, {"type": "node", "id": 12011851248, "lat": 35.6401912, "lon": 139.6748197}, {"type": "way", "id": 196496524, "nodes": [2068250650, 2068250649, 2068250647, 2068250645, 2068250650], "tags": {"amenity": "cafe", "building": "retail", "source": "Bing"}}, {"type": "way", "id": 202941076, "nodes": [2128916868, 2128916915, 2128916912, 2128916866, 2128916868], "tags": {"amenity": "cafe", "building": "yes", "source": "Bing"}}, {"type": "way", "id": 311746033, "nodes": [3174657848, 3174657849, 3174657850, 3174657851, 3174657852, 3174657853, 3174657854, 3174657855, 3174657848], "tags": {"amenity": "cafe", "building": "yes", "source": "GSImaps/std"}}, {"type": "way", "id": 313048328, "nodes": [3189712652, 3189712653, 3189712654, 3189712655, 3189712652], "tags": {"addr:block_number": "36", "addr:city": "\u4e16\u7530\u8c37\u533a", "addr:housenumber": "\u30d3\u30eb1", "addr:neighbourhood": "1\u4e01\u76ee", "addr:postcode": "154-0024", "addr:province": "\u6771\u4eac\u90fd", "addr:quarter": "\u4e09\u8ed2\u8336\u5c4b", "addr:suburb": "\u4e09\u8ed2\u8336\u5c4b", "amenity": "cafe", "building": "yes", "cuisine": "coffee_shop", "internet_access": "wlan", "internet_access:fee": "no", "name": "And Co.ffee", "name:ja": "\u30a2\u30f3\u30c9\u3000\u30b3\u30fc\u30d2\u30fc", "opening_hours": "Mo-Su 12:00-20:00", "outdoor_seating": "no", "payment:cash": "yes", "payment:contactless": "yes", "payment:credit_cards": "yes", "phone": "03-6805-3563", "source": "GSImaps/std", "takeaway": "yes", "toilets": "yes"}}, {"type": "way", "id": 1296287368, "nodes": [3504207330, 12011851247, 3504207335, 12011851248, 3504207330], "tags": {"amenity": "cafe", "building": "house", "layer": "1", "name": "The building which near by Noah Sound Studio seems just someone's house, and the building which contains \"Tokoshie\" which seems cafe, were connecting."}}]}